{
  "type": "FeatureCollection",
  "features": [
    {
      "type": "Feature",
      "properties": {
        "norad_id": 66440,
        "name": "STARLINK-35405",
        "group": "last-30-days",
        "lat": -42.23769382618234,
        "lon": -17.214733461616717,
        "alt_km": 446.5214635632319,
        "timestamp": "2025-12-10T14:53:35.945597+00:00",
        "meta_object_name": "STARLINK-35405",
        "meta_object_id": "2025-259U",
        "meta_epoch": "2025-12-10T06:00:02.000160",
        "meta_mean_motion": 15.40778599,
        "meta_eccentricity": 0.0001526,
        "meta_inclination": 43.0003,
        "meta_ra_of_asc_node": 61.9112,
        "meta_arg_of_pericenter": 268.8365,
        "meta_mean_anomaly": 113.1513,
        "meta_ephemeris_type": 0,
        "meta_classification_type": "U",
        "meta_norad_cat_id": 66440,
        "meta_element_set_no": 999,
        "meta_rev_at_epoch": 588,
        "meta_bstar": -0.004359058,
        "meta_mean_motion_dot": -0.00178664,
        "meta_mean_motion_ddot": 0,
        "tle_line1": "1 66440U 25259U   25344.25002315 -.00178664  00000+0 -43591-2 0  9996",
        "tle_line2": "2 66440  43.0003  61.9112 0001526 268.8365 113.1513 15.40778599  5885"
      },
      "geometry": {
        "type": "Point",
        "coordinates": [
          -17.214733461616717,
          -42.23769382618234
        ]
      }
    },
    {
      "type": "Feature",
      "properties": {
        "norad_id": 66441,
        "name": "STARLINK-35426",
        "group": "last-30-days",
        "lat": -39.18239068273446,
        "lon": -1.2595812782693592,
        "alt_km": 446.08349706722856,
        "timestamp": "2025-12-10T14:53:35.945606+00:00",
        "meta_object_name": "STARLINK-35426",
        "meta_object_id": "2025-259V",
        "meta_epoch": "2025-12-10T06:00:02.000160",
        "meta_mean_motion": 15.42606673,
        "meta_eccentricity": 0.00015713,
        "meta_inclination": 43.0004,
        "meta_ra_of_asc_node": 61.8842,
        "meta_arg_of_pericenter": 267.3049,
        "meta_mean_anomaly": 125.8844,
        "meta_ephemeris_type": 0,
        "meta_classification_type": "U",
        "meta_norad_cat_id": 66441,
        "meta_element_set_no": 999,
        "meta_rev_at_epoch": 588,
        "meta_bstar": -0.057927478,
        "meta_mean_motion_dot": -0.02303976,
        "meta_mean_motion_ddot": 0,
        "tle_line1": "1 66441U 25259V   25344.25002315 -.02303976  00000+0 -57927-1 0  9992",
        "tle_line2": "2 66441  43.0004  61.8842 0001571 267.3049 125.8844 15.42606673  5881"
      },
      "geometry": {
        "type": "Point",
        "coordinates": [
          -1.2595812782693592,
          -39.18239068273446
        ]
      }
    },
    {
      "type": "Feature",
      "properties": {
        "norad_id": 66442,
        "name": "STARLINK-34724",
        "group": "last-30-days",
        "lat": -34.56431792535364,
        "lon": 12.04588377114369,
        "alt_km": 441.681138936523,
        "timestamp": "2025-12-10T14:53:35.945615+00:00",
        "meta_object_name": "STARLINK-34724",
        "meta_object_id": "2025-259W",
        "meta_epoch": "2025-12-10T06:00:02.000160",
        "meta_mean_motion": 15.43767618,
        "meta_eccentricity": 0.00014276,
        "meta_inclination": 43.0009,
        "meta_ra_of_asc_node": 61.8602,
        "meta_arg_of_pericenter": 282.2031,
        "meta_mean_anomaly": 120.8762,
        "meta_ephemeris_type": 0,
        "meta_classification_type": "U",
        "meta_norad_cat_id": 66442,
        "meta_element_set_no": 999,
        "meta_rev_at_epoch": 588,
        "meta_bstar": -0.0473511,
        "meta_mean_motion_dot": -0.01959146,
        "meta_mean_motion_ddot": 0,
        "tle_line1": "1 66442U 25259W   25344.25002315 -.01959146  00000+0 -47351-1 0  9998",
        "tle_line2": "2 66442  43.0009  61.8602 0001427 282.2031 120.8762 15.43767618  5880"
      },
      "geometry": {
        "type": "Point",
        "coordinates": [
          12.04588377114369,
          -34.56431792535364
        ]
      }
    },
    {
      "type": "Feature",
      "properties": {
        "norad_id": 66443,
        "name": "STARLINK-35219",
        "group": "last-30-days",
        "lat": -29.43853421921423,
        "lon": 22.418798458442453,
        "alt_km": 437.94600174626066,
        "timestamp": "2025-12-10T14:53:35.945624+00:00",
        "meta_object_name": "STARLINK-35219",
        "meta_object_id": "2025-259X",
        "meta_epoch": "2025-12-10T06:00:02.000160",
        "meta_mean_motion": 15.45119562,
        "meta_eccentricity": 0.00013166,
        "meta_inclination": 43.0003,
        "meta_ra_of_asc_node": 61.8398,
        "meta_arg_of_pericenter": 268.8685,
        "meta_mean_anomaly": 142.6491,
        "meta_ephemeris_type": 0,
        "meta_classification_type": "U",
        "meta_norad_cat_id": 66443,
        "meta_element_set_no": 999,
        "meta_rev_at_epoch": 577,
        "meta_bstar": -0.047414102,
        "meta_mean_motion_dot": -0.02044447,
        "meta_mean_motion_ddot": 0,
        "tle_line1": "1 66443U 25259X   25344.25002315 -.02044447  00000+0 -47414-1 0  9999",
        "tle_line2": "2 66443  43.0003  61.8398 0001316 268.8685 142.6491 15.45119562  5779"
      },
      "geometry": {
        "type": "Point",
        "coordinates": [
          22.418798458442453,
          -29.43853421921423
        ]
      }
    },
    {
      "type": "Feature",
      "properties": {
        "norad_id": 66444,
        "name": "STARLINK-35360",
        "group": "last-30-days",
        "lat": -13.026370842924438,
        "lon": 45.2477707505307,
        "alt_km": 414.5261115664953,
        "timestamp": "2025-12-10T14:53:35.945634+00:00",
        "meta_object_name": "STARLINK-35360",
        "meta_object_id": "2025-259Y",
        "meta_epoch": "2025-12-09T14:14:38.914944",
        "meta_mean_motion": 15.50671448,
        "meta_eccentricity": 0.0003008,
        "meta_inclination": 43.0004,
        "meta_ra_of_asc_node": 65.6336,
        "meta_arg_of_pericenter": 269.9974,
        "meta_mean_anomaly": 90.0542,
        "meta_ephemeris_type": 0,
        "meta_classification_type": "U",
        "meta_norad_cat_id": 66444,
        "meta_element_set_no": 999,
        "meta_rev_at_epoch": 568,
        "meta_bstar": 0.0018101,
        "meta_mean_motion_dot": 0.00107686,
        "meta_mean_motion_ddot": 0,
        "tle_line1": "1 66444U 25259Y   25343.59350596  .00107686  00000+0  18101-2 0  9996",
        "tle_line2": "2 66444  43.0004  65.6336 0003008 269.9974  90.0542 15.50671448  5683"
      },
      "geometry": {
        "type": "Point",
        "coordinates": [
          45.2477707505307,
          -13.026370842924438
        ]
      }
    },
    {
      "type": "Feature",
      "properties": {
        "norad_id": 66445,
        "name": "STARLINK-34698",
        "group": "last-30-days",
        "lat": -24.423506040567002,
        "lon": 30.506704104925145,
        "alt_km": 433.7602747769488,
        "timestamp": "2025-12-10T14:53:35.945643+00:00",
        "meta_object_name": "STARLINK-34698",
        "meta_object_id": "2025-259Z",
        "meta_epoch": "2025-12-10T06:00:02.000160",
        "meta_mean_motion": 15.46449762,
        "meta_eccentricity": 0.0001344,
        "meta_inclination": 43.0011,
        "meta_ra_of_asc_node": 61.822,
        "meta_arg_of_pericenter": 269.9261,
        "meta_mean_anomaly": 148.6112,
        "meta_ephemeris_type": 0,
        "meta_classification_type": "U",
        "meta_norad_cat_id": 66445,
        "meta_element_set_no": 999,
        "meta_rev_at_epoch": 577,
        "meta_bstar": -0.04517514,
        "meta_mean_motion_dot": -0.02040488,
        "meta_mean_motion_ddot": 0,
        "tle_line1": "1 66445U 25259Z   25344.25002315 -.02040488  00000+0 -45175-1 0  9994",
        "tle_line2": "2 66445  43.0011  61.8220 0001344 269.9261 148.6112 15.46449762  5772"
      },
      "geometry": {
        "type": "Point",
        "coordinates": [
          30.506704104925145,
          -24.423506040567002
        ]
      }
    },
    {
      "type": "Feature",
      "properties": {
        "norad_id": 66446,
        "name": "STARLINK-34986",
        "group": "last-30-days",
        "lat": -14.295218750089873,
        "lon": 43.757615103989814,
        "alt_km": 414.5361245795748,
        "timestamp": "2025-12-10T14:53:35.945652+00:00",
        "meta_object_name": "STARLINK-34986",
        "meta_object_id": "2025-259AA",
        "meta_epoch": "2025-12-09T14:15:08.032608",
        "meta_mean_motion": 15.5062385,
        "meta_eccentricity": 0.0002711,
        "meta_inclination": 42.9993,
        "meta_ra_of_asc_node": 65.636,
        "meta_arg_of_pericenter": 273.1662,
        "meta_mean_anomaly": 86.8888,
        "meta_ephemeris_type": 0,
        "meta_classification_type": "U",
        "meta_norad_cat_id": 66446,
        "meta_element_set_no": 999,
        "meta_rev_at_epoch": 568,
        "meta_bstar": 0.0023987,
        "meta_mean_motion_dot": 0.00143221,
        "meta_mean_motion_ddot": 0,
        "tle_line1": "1 66446U 25259AA  25343.59384297  .00143221  00000+0  23987-2 0  9996",
        "tle_line2": "2 66446  42.9993  65.6360 0002711 273.1662  86.8888 15.50623850  5688"
      },
      "geometry": {
        "type": "Point",
        "coordinates": [
          43.757615103989814,
          -14.295218750089873
        ]
      }
    }
  ]
}